GOES 1 (SMS-C)          
1 08366U 75100A   26087.66292054  .00000003  00000+0  00000+0 0  9994
2 08366   4.8130 278.4623 0004823   2.3832  20.4539  1.00242924184266
GOES 2                  
1 10061U 77048A   26087.76631433  .00000053  00000+0  00000+0 0  9996
2 10061   6.6118 294.0340 0013767  51.0485 155.6347  0.99396571 45471
GOES 3                  
1 10953U 78062A   26087.63172039 -.00000003  00000+0  00000+0 0  9997
2 10953   7.0847 299.8933 0002395   2.4860 190.1143  0.99356892127738
GOES 4                  
1 11964U 80074A   26087.73008751  .00000033  00000+0  00000+0 0  9998
2 11964   8.1600 303.5625 0032647 104.2489 257.3950  0.99230064126645
GOES 5                  
1 12472U 81049A   26087.59740025 -.00000183  00000+0  00000+0 0  9994
2 12472   9.5035 316.1925 0004153 342.5016   8.2617  1.00207511122030
GOES 6                  
1 14050U 83041A   26087.66482721 -.00000061  00000+0  00000+0 0  9991
2 14050  10.3196 321.7492 0001762 311.1716  38.3280  1.00220030215208
GOES 7                  
1 17561U 87022A   26086.37139314  .00000049  00000+0  00000+0 0  9993
2 17561  13.0005 338.2141 0004074  23.9266 152.2943  0.99904305126145
GOES 8                  
1 23051U 94022A   26086.91329925  .00000023  00000+0  00000+0 0  9993
2 23051  14.3611  14.2933 0005765  23.5895 168.4751  0.98903624123320
GOES 9                  
1 23581U 95025A   26087.55962522 -.00000288  00000+0  00000+0 0  9996
2 23581  13.8919  15.1390 0002833 199.2782 324.8142  0.98802600111960
GOES 10                 
1 24786U 97019A   26087.04515865 -.00000203  00000+0  00000+0 0  9994
2 24786  13.0331  21.6787 0030767 239.6376 298.6622  0.99126946105265
GOES 11                 
1 26352U 00022A   26087.65096049 -.00000199  00000+0  00000+0 0  9992
2 26352  11.6324  47.2082 0005216 262.4302 287.3792  0.99045202 51671
GOES 12                 
1 26871U 01031A   26087.57240612 -.00000038  00000+0  00000+0 0  9999
2 26871  12.0396  37.9391 0008562 301.8376 253.6437  0.99138410 89965
EWS-G1 (GOES 13)        
1 29155U 06018A   26087.85324473 -.00000178  00000+0  00000+0 0  9991
2 29155   4.3254  77.3814 0061947 274.3105 259.9594  0.98786772 42453
GOES 14                 
1 35491U 09033A   26087.79569447  .00000053  00000+0  00000+0 0  9997
2 35491   1.4830  84.0229 0001717 277.8076 297.9517  1.00108649  5787
EWS-G2 (GOES 15)        
1 36411U 10008A   26087.66997493  .00000003  00000+0  00000+0 0  9991
2 36411   1.0678  84.4611 0002661  19.3681  26.7430  1.00270308 58833
GOES 16                 
1 41866U 16071A   26087.66664723 -.00000110  00000+0  00000+0 0  9994
2 41866   0.1579  85.4996 0002188 233.0864   2.7816  1.00271531 34297
GOES 17                 
1 43226U 18022A   26087.59835360 -.00000201  00000+0  00000+0 0  9994
2 43226   0.7312  86.9387 0001538 236.4458 348.5274  1.00271175 29617
