[{"OBJECT_NAME":"GOES 1 (SMS-C)","OBJECT_ID":"1975-100A","EPOCH":"2026-03-28T15:54:36.334656","MEAN_MOTION":1.00242924,"ECCENTRICITY":0.0004823,"INCLINATION":4.813,"RA_OF_ASC_NODE":278.4623,"ARG_OF_PERICENTER":2.3832,"MEAN_ANOMALY":20.4539,"EPHEMERIS_TYPE":0,"CLASSIFICATION_TYPE":"U","NORAD_CAT_ID":8366,"ELEMENT_SET_NO":999,"REV_AT_EPOCH":18426,"BSTAR":0,"MEAN_MOTION_DOT":3.0e-8,"MEAN_MOTION_DDOT":0},{"OBJECT_NAME":"GOES 2","OBJECT_ID":"1977-048A","EPOCH":"2026-03-28T18:23:29.558112","MEAN_MOTION":0.99396571,"ECCENTRICITY":0.0013767,"INCLINATION":6.6118,"RA_OF_ASC_NODE":294.034,"ARG_OF_PERICENTER":51.0485,"MEAN_ANOMALY":155.6347,"EPHEMERIS_TYPE":0,"CLASSIFICATION_TYPE":"U","NORAD_CAT_ID":10061,"ELEMENT_SET_NO":999,"REV_AT_EPOCH":4547,"BSTAR":0,"MEAN_MOTION_DOT":5.3e-7,"MEAN_MOTION_DDOT":0},{"OBJECT_NAME":"GOES 3","OBJECT_ID":"1978-062A","EPOCH":"2026-03-28T15:09:40.641696","MEAN_MOTION":0.99356892,"ECCENTRICITY":0.0002395,"INCLINATION":7.0847,"RA_OF_ASC_NODE":299.8933,"ARG_OF_PERICENTER":2.486,"MEAN_ANOMALY":190.1143,"EPHEMERIS_TYPE":0,"CLASSIFICATION_TYPE":"U","NORAD_CAT_ID":10953,"ELEMENT_SET_NO":999,"REV_AT_EPOCH":12773,"BSTAR":0,"MEAN_MOTION_DOT":-3.0e-8,"MEAN_MOTION_DDOT":0},{"OBJECT_NAME":"GOES 4","OBJECT_ID":"1980-074A","EPOCH":"2026-03-28T17:31:19.560864","MEAN_MOTION":0.99230064,"ECCENTRICITY":0.0032647,"INCLINATION":8.16,"RA_OF_ASC_NODE":303.5625,"ARG_OF_PERICENTER":104.2489,"MEAN_ANOMALY":257.395,"EPHEMERIS_TYPE":0,"CLASSIFICATION_TYPE":"U","NORAD_CAT_ID":11964,"ELEMENT_SET_NO":999,"REV_AT_EPOCH":12664,"BSTAR":0,"MEAN_MOTION_DOT":3.3e-7,"MEAN_MOTION_DDOT":0},{"OBJECT_NAME":"GOES 5","OBJECT_ID":"1981-049A","EPOCH":"2026-03-28T14:20:15.381600","MEAN_MOTION":1.00207511,"ECCENTRICITY":0.0004153,"INCLINATION":9.5035,"RA_OF_ASC_NODE":316.1925,"ARG_OF_PERICENTER":342.5016,"MEAN_ANOMALY":8.2617,"EPHEMERIS_TYPE":0,"CLASSIFICATION_TYPE":"U","NORAD_CAT_ID":12472,"ELEMENT_SET_NO":999,"REV_AT_EPOCH":12203,"BSTAR":0,"MEAN_MOTION_DOT":-1.83e-6,"MEAN_MOTION_DDOT":0},{"OBJECT_NAME":"GOES 6","OBJECT_ID":"1983-041A","EPOCH":"2026-03-28T15:57:21.070944","MEAN_MOTION":1.0022003,"ECCENTRICITY":0.0001762,"INCLINATION":10.3196,"RA_OF_ASC_NODE":321.7492,"ARG_OF_PERICENTER":311.1716,"MEAN_ANOMALY":38.328,"EPHEMERIS_TYPE":0,"CLASSIFICATION_TYPE":"U","NORAD_CAT_ID":14050,"ELEMENT_SET_NO":999,"REV_AT_EPOCH":21520,"BSTAR":0,"MEAN_MOTION_DOT":-6.1e-7,"MEAN_MOTION_DDOT":0},{"OBJECT_NAME":"GOES 7","OBJECT_ID":"1987-022A","EPOCH":"2026-03-27T08:54:48.367296","MEAN_MOTION":0.99904305,"ECCENTRICITY":0.0004074,"INCLINATION":13.0005,"RA_OF_ASC_NODE":338.2141,"ARG_OF_PERICENTER":23.9266,"MEAN_ANOMALY":152.2943,"EPHEMERIS_TYPE":0,"CLASSIFICATION_TYPE":"U","NORAD_CAT_ID":17561,"ELEMENT_SET_NO":999,"REV_AT_EPOCH":12614,"BSTAR":0,"MEAN_MOTION_DOT":4.9e-7,"MEAN_MOTION_DDOT":0},{"OBJECT_NAME":"GOES 8","OBJECT_ID":"1994-022A","EPOCH":"2026-03-27T21:55:09.055200","MEAN_MOTION":0.98903624,"ECCENTRICITY":0.0005765,"INCLINATION":14.3611,"RA_OF_ASC_NODE":14.2933,"ARG_OF_PERICENTER":23.5895,"MEAN_ANOMALY":168.4751,"EPHEMERIS_TYPE":0,"CLASSIFICATION_TYPE":"U","NORAD_CAT_ID":23051,"ELEMENT_SET_NO":999,"REV_AT_EPOCH":12332,"BSTAR":0,"MEAN_MOTION_DOT":2.3e-7,"MEAN_MOTION_DDOT":0},{"OBJECT_NAME":"GOES 9","OBJECT_ID":"1995-025A","EPOCH":"2026-03-28T13:25:51.619008","MEAN_MOTION":0.988026,"ECCENTRICITY":0.0002833,"INCLINATION":13.8919,"RA_OF_ASC_NODE":15.139,"ARG_OF_PERICENTER":199.2782,"MEAN_ANOMALY":324.8142,"EPHEMERIS_TYPE":0,"CLASSIFICATION_TYPE":"U","NORAD_CAT_ID":23581,"ELEMENT_SET_NO":999,"REV_AT_EPOCH":11196,"BSTAR":0,"MEAN_MOTION_DOT":-2.88e-6,"MEAN_MOTION_DDOT":0},{"OBJECT_NAME":"GOES 10","OBJECT_ID":"1997-019A","EPOCH":"2026-03-28T01:05:01.707360","MEAN_MOTION":0.99126946,"ECCENTRICITY":0.00307675,"INCLINATION":13.0331,"RA_OF_ASC_NODE":21.6787,"ARG_OF_PERICENTER":239.6376,"MEAN_ANOMALY":298.6622,"EPHEMERIS_TYPE":0,"CLASSIFICATION_TYPE":"U","NORAD_CAT_ID":24786,"ELEMENT_SET_NO":999,"REV_AT_EPOCH":10526,"BSTAR":0,"MEAN_MOTION_DOT":-2.03e-6,"MEAN_MOTION_DDOT":0},{"OBJECT_NAME":"GOES 11","OBJECT_ID":"2000-022A","EPOCH":"2026-03-28T15:37:22.986336","MEAN_MOTION":0.99045202,"ECCENTRICITY":0.0005216,"INCLINATION":11.6324,"RA_OF_ASC_NODE":47.2082,"ARG_OF_PERICENTER":262.4302,"MEAN_ANOMALY":287.3792,"EPHEMERIS_TYPE":0,"CLASSIFICATION_TYPE":"U","NORAD_CAT_ID":26352,"ELEMENT_SET_NO":999,"REV_AT_EPOCH":5167,"BSTAR":0,"MEAN_MOTION_DOT":-1.99e-6,"MEAN_MOTION_DDOT":0},{"OBJECT_NAME":"GOES 12","OBJECT_ID":"2001-031A","EPOCH":"2026-03-28T13:44:15.888768","MEAN_MOTION":0.9913841,"ECCENTRICITY":0.0008562,"INCLINATION":12.0396,"RA_OF_ASC_NODE":37.9391,"ARG_OF_PERICENTER":301.8376,"MEAN_ANOMALY":253.6437,"EPHEMERIS_TYPE":0,"CLASSIFICATION_TYPE":"U","NORAD_CAT_ID":26871,"ELEMENT_SET_NO":999,"REV_AT_EPOCH":8996,"BSTAR":0,"MEAN_MOTION_DOT":-3.8e-7,"MEAN_MOTION_DDOT":0},{"OBJECT_NAME":"EWS-G1 (GOES 13)","OBJECT_ID":"2006-018A","EPOCH":"2026-03-28T20:28:40.344672","MEAN_MOTION":0.98786772,"ECCENTRICITY":0.0061947,"INCLINATION":4.3254,"RA_OF_ASC_NODE":77.3814,"ARG_OF_PERICENTER":274.3105,"MEAN_ANOMALY":259.9594,"EPHEMERIS_TYPE":0,"CLASSIFICATION_TYPE":"U","NORAD_CAT_ID":29155,"ELEMENT_SET_NO":999,"REV_AT_EPOCH":4245,"BSTAR":0,"MEAN_MOTION_DOT":-1.78e-6,"MEAN_MOTION_DDOT":0},{"OBJECT_NAME":"GOES 14","OBJECT_ID":"2009-033A","EPOCH":"2026-03-28T19:05:48.002208","MEAN_MOTION":1.00108649,"ECCENTRICITY":0.0001717,"INCLINATION":1.483,"RA_OF_ASC_NODE":84.0229,"ARG_OF_PERICENTER":277.8076,"MEAN_ANOMALY":297.9517,"EPHEMERIS_TYPE":0,"CLASSIFICATION_TYPE":"U","NORAD_CAT_ID":35491,"ELEMENT_SET_NO":999,"REV_AT_EPOCH":578,"BSTAR":0,"MEAN_MOTION_DOT":5.3e-7,"MEAN_MOTION_DDOT":0},{"OBJECT_NAME":"EWS-G2 (GOES 15)","OBJECT_ID":"2010-008A","EPOCH":"2026-03-28T16:04:45.833952","MEAN_MOTION":1.00270308,"ECCENTRICITY":0.0002661,"INCLINATION":1.0678,"RA_OF_ASC_NODE":84.4611,"ARG_OF_PERICENTER":19.3681,"MEAN_ANOMALY":26.743,"EPHEMERIS_TYPE":0,"CLASSIFICATION_TYPE":"U","NORAD_CAT_ID":36411,"ELEMENT_SET_NO":999,"REV_AT_EPOCH":5883,"BSTAR":0,"MEAN_MOTION_DOT":3.0e-8,"MEAN_MOTION_DDOT":0},{"OBJECT_NAME":"GOES 16","OBJECT_ID":"2016-071A","EPOCH":"2026-03-28T15:59:58.320672","MEAN_MOTION":1.00271531,"ECCENTRICITY":0.0002188,"INCLINATION":0.1579,"RA_OF_ASC_NODE":85.4996,"ARG_OF_PERICENTER":233.0864,"MEAN_ANOMALY":2.7816,"EPHEMERIS_TYPE":0,"CLASSIFICATION_TYPE":"U","NORAD_CAT_ID":41866,"ELEMENT_SET_NO":999,"REV_AT_EPOCH":3429,"BSTAR":0,"MEAN_MOTION_DOT":-1.1e-6,"MEAN_MOTION_DDOT":0},{"OBJECT_NAME":"GOES 17","OBJECT_ID":"2018-022A","EPOCH":"2026-03-28T14:21:37.751040","MEAN_MOTION":1.00271175,"ECCENTRICITY":0.0001538,"INCLINATION":0.7312,"RA_OF_ASC_NODE":86.9387,"ARG_OF_PERICENTER":236.4458,"MEAN_ANOMALY":348.5274,"EPHEMERIS_TYPE":0,"CLASSIFICATION_TYPE":"U","NORAD_CAT_ID":43226,"ELEMENT_SET_NO":999,"REV_AT_EPOCH":2961,"BSTAR":0,"MEAN_MOTION_DOT":-2.01e-6,"MEAN_MOTION_DDOT":0}]
